0 TANAGER-1 4001
1 60507U 24149AR  26161.22904179  .00002640  00000-0  58019-4 0  9997
2 60507  97.2727 255.4802 0003227 334.7944  25.3147 15.44922363101966
0 EAGLEEYE
1 60508U 24149AS  26161.22419746  .00092367  00000-0  77403-3 0  9991
2 60508  97.3717 254.1839 0003434 255.3748 104.7134 15.69668366101845
0 FLOCK 4BE 29
1 60509U 24149AT  26161.50483806  .00016020  00000-0  35404-3 0  9998
2 60509  97.3808 247.2779 0001585 340.1741  19.9445 15.43926186101384
0 FLOCK 4BE 2
1 60511U 24149AV  26161.48420919  .00051470  00000-0  85314-3 0  9997
2 60511  97.3833 248.5911 0002647 282.8164  77.2792 15.51990332101462
0 FLOCK 4BE 13
1 60512U 24149AW  26161.47109218  .00013380  00000-0  31879-3 0  9998
2 60512  97.3719 245.8133 0002796 296.8072  63.2889 15.41710093101331
0 FLOCK 4BE 27
1 60513U 24149AX  26161.54257914  .00008275  00000-0  25130-3 0  9994
2 60513  97.3826 243.3911 0003008 348.9722  11.1454 15.34331959101125
0 FLOCK 4BE 9
1 60514U 24149AY  26161.46542778  .00014527  00000-0  35886-3 0  9997
2 60514  97.3792 245.6725 0001638 343.8286  16.2908 15.40596672101281
0 FLOCK 4BE 6
1 60516U 24149BA  26161.48891730  .00013570  00000-0  34881-3 0  9997
2 60516  97.3787 245.0675 0002262 335.6577  24.4561 15.39398143101244
0 FLOCK 4BE 14
1 60517U 24149BB  26161.54369374  .00014254  00000-0  34995-3 0  9995
2 60517  97.3697 245.2531 0003172 327.7052  32.4000 15.40784762101301
0 FLOCK 4BE 1
1 60518U 24149BC  26161.50163989  .00015563  00000-0  36217-3 0  9999
2 60518  97.3778 246.4642 0002864 325.9264  34.1799 15.42384225101340
0 FLOCK 4BE 28
1 60519U 24149BD  26161.20192467  .00017688  00000-0  38089-3 0  9999
2 60519  97.3747 246.8634 0002968 320.7420  39.3613 15.44670790101365
0 IPERDRONE.0
1 60520U 24149BE  26161.53399800  .00067481  00000-0  66633-3 0  9999
2 60520  97.3775 254.4227 0002991 243.1306 116.9648 15.65695648101876
0 CONNECTA IOT-2
1 60522U 24149BG  26161.48264453  .00004121  00000-0  17344-3 0  9997
2 60522  97.3838 239.7299 0006183   3.4117 356.7161 15.23919024100871
0 PTD-R (TYVAK-0127)
1 60523U 24149BH  26161.23892270  .01440089  16064-2  11752-2 0  9998
2 60523  97.3869 261.5616 0010722 268.6299  91.3759 16.14437527102323
0 CONNECTA IOT-4
1 60524U 24149BJ  26161.19894869  .00016206  00000-0  38319-3 0  9999
2 60524  97.3798 245.4876 0004070 319.0457  41.0484 15.41891525101259
0 ORESAT0.5
1 60525U 24149BK  26161.51178181  .00017693  00000-0  37892-3 0  9994
2 60525  97.3722 247.4110 0004055 305.2214  54.8654 15.44828795101445
0 DEIMOS
1 60526U 24149BL  26161.21627874  .00017487  00000-0  38545-3 0  9997
2 60526  97.3780 247.2551 0004087 315.8068  44.2853 15.43977540101374
0 CUAVA-2
1 60527U 24149BM  26161.50355519  .00010770  00000-0  30972-3 0  9998
2 60527  97.3725 243.0119 0005486 324.9036  35.1846 15.35962750101142
0 ERNST
1 60528U 24149BN  26161.47333039  .00012956  00000-0  33708-3 0  9996
2 60528  97.3808 245.1434 0004788 329.9654  30.1316 15.39030193101242
0 HYPSO-2
1 60531U 24149BR  26161.45767402  .00001694  00000-0  14554-3 0  9998
2 60531  97.6821 237.8176 0001261  41.8210 318.3109 14.98761460 99043
0 LEMU-NGE
1 60532U 24149BS  26161.49180183  .00002596  00000-0  24301-3 0  9991
2 60532  97.6843 236.5865 0002541  76.4992 283.6511 14.94927535 98955
0 LEMUR 2 STELLA
1 60533U 24149BT  26161.46270785  .00010082  00000-0  59622-3 0  9990
2 60533  97.6731 243.8889 0001729  99.7271 260.4154 15.11661191 99482
0 SATELIOT_2
1 60534U 24149BU  26161.60671409  .00001728  00000-0  15777-3 0  9995
2 60534  97.6822 236.6826 0001824 103.3709 256.7716 14.96334387 98981
0 NIGHTJAR
1 60535U 24149BV  26161.45016328  .00001959  00000-0  16656-3 0  9995
2 60535  97.6862 238.2511 0002061  83.8943 276.2514 14.98989128141861
0 LEMUR 2 MARHISYAM
1 60536U 24149BW  26161.24194924  .00010787  00000-0  64713-3 0  9998
2 60536  97.6879 244.1092 0003102 130.9350 229.2148 15.11118694 99437
0 SATELIOT_4
1 60537U 24149BX  26161.55204915  .00002112  00000-0  19022-3 0  9991
2 60537  97.6738 236.1610 0003441  76.3383 283.8222 14.96643675 98986
0 PICO-02A021
1 60538U 24149BY  26160.44480182  .00004863  00000-0  36415-3 0  9991
2 60538  97.6731 239.3437 0005425  49.7626 310.4073 15.03169138 98572
