OBJECT_NAME,OBJECT_ID,EPOCH,MEAN_MOTION,ECCENTRICITY,INCLINATION,RA_OF_ASC_NODE,ARG_OF_PERICENTER,MEAN_ANOMALY,EPHEMERIS_TYPE,CLASSIFICATION_TYPE,NORAD_CAT_ID,ELEMENT_SET_NO,REV_AT_EPOCH,BSTAR,MEAN_MOTION_DOT,MEAN_MOTION_DDOT
TANAGER-1,2024-149AR,2026-06-10T05:29:49.210656,15.44922363,.00032272,97.2727,255.4802,334.7944,25.3147,0,U,60507,999,10196,.58018698E-4,.264E-4,0
EAGLEEYE,2024-149AS,2026-06-10T05:22:50.660544,15.69668366,.00034342,97.3717,254.1839,255.3748,104.7134,0,U,60508,999,10184,.77403148E-3,.92367E-3,0
FLOCK 4BE-29,2024-149AT,2026-06-10T12:06:58.008384,15.43926186,.00015848,97.3808,247.2779,340.1741,19.9445,0,U,60509,999,10138,.35403895E-3,.1602E-3,0
FLOCK 4BE-2,2024-149AV,2026-06-10T11:37:15.674016,15.51990332,.00026467,97.3833,248.5911,282.8164,77.2792,0,U,60511,999,10146,.85314369E-3,.5147E-3,0
FLOCK 4BE-13,2024-149AW,2026-06-10T11:18:22.364352,15.41710093,.00027963,97.3719,245.8133,296.8072,63.2889,0,U,60512,999,10133,.31878693E-3,.1338E-3,0
FLOCK 4BE-27,2024-149AX,2026-06-10T13:01:18.837696,15.34331959,.00030083,97.3826,243.3911,348.9722,11.1454,0,U,60513,999,10112,.25129837E-3,.8275E-4,0
FLOCK 4BE-9,2024-149AY,2026-06-10T11:10:12.960192,15.40596672,.00016381,97.3792,245.6725,343.8286,16.2908,0,U,60514,999,10128,.35886122E-3,.14527E-3,0
FLOCK 4BE-6,2024-149BA,2026-06-10T11:44:02.454720,15.39398143,.00022625,97.3787,245.0675,335.6577,24.4561,0,U,60516,999,10124,.34881467E-3,.1357E-3,0
FLOCK 4BE-14,2024-149BB,2026-06-10T13:02:55.139136,15.40784762,.00031718,97.3697,245.2531,327.7052,32.4000,0,U,60517,999,10130,.34995241E-3,.14254E-3,0
FLOCK 4BE-1,2024-149BC,2026-06-10T12:02:21.686496,15.42384225,.00028635,97.3778,246.4642,325.9264,34.1799,0,U,60518,999,10134,.36217406E-3,.15563E-3,0
FLOCK 4BE-28,2024-149BD,2026-06-10T04:50:46.291488,15.44670790,.00029678,97.3747,246.8634,320.7420,39.3613,0,U,60519,999,10136,.38089346E-3,.17688E-3,0
IPERDRONE.0,2024-149BE,2026-06-10T12:48:57.427200,15.65695648,.00029907,97.3775,254.4227,243.1306,116.9648,0,U,60520,999,10187,.66633425E-3,.67481E-3,0
CONNECTA IOT-2,2024-149BG,2026-06-10T11:35:00.487392,15.23919024,.00061833,97.3838,239.7299,3.4117,356.7161,0,U,60522,999,10087,.17344459E-3,.4121E-4,0
PTD-R (TYVAK-0127),2024-149BH,2026-06-10T05:44:02.921280,16.14437527,.00107216,97.3869,261.5616,268.6299,91.3759,0,U,60523,999,10232,.11751524E-2,.1440089E-1,.16063534E-2
CONNECTA IOT-4,2024-149BJ,2026-06-10T04:46:29.166816,15.41891525,.00040699,97.3798,245.4876,319.0457,41.0484,0,U,60524,999,10125,.38318885E-3,.16206E-3,0
ORESAT0.5,2024-149BK,2026-06-10T12:16:57.948384,15.44828795,.00040545,97.3722,247.4110,305.2214,54.8654,0,U,60525,999,10144,.37891933E-3,.17693E-3,0
DEIMOS,2024-149BL,2026-06-10T05:11:26.483136,15.43977540,.00040871,97.3780,247.2551,315.8068,44.2853,0,U,60526,999,10137,.38545357E-3,.17487E-3,0
CUAVA-2,2024-149BM,2026-06-10T12:05:07.168416,15.35962750,.00054859,97.3725,243.0119,324.9036,35.1846,0,U,60527,999,10114,.30972285E-3,.1077E-3,0
ERNST,2024-149BN,2026-06-10T11:21:35.745696,15.39030193,.00047884,97.3808,245.1434,329.9654,30.1316,0,U,60528,999,10124,.33707818E-3,.12956E-3,0
HYPSO-2,2024-149BR,2026-06-10T10:59:03.035328,14.98761460,.00012614,97.6821,237.8176,41.8210,318.3109,0,U,60531,999,9904,.14553862E-3,.1694E-4,0
LEMU NGE,2024-149BS,2026-06-10T11:48:11.678112,14.94927535,.00025406,97.6843,236.5865,76.4992,283.6511,0,U,60532,999,9895,.24300703E-3,.2596E-4,0
LEMUR-2-STELLA,2024-149BT,2026-06-10T11:06:17.958240,15.11661191,.00017292,97.6731,243.8889,99.7271,260.4154,0,U,60533,999,9948,.59621632E-3,.10082E-3,0
SATELIOT_2,2024-149BU,2026-06-10T14:33:40.097376,14.96334387,.00018244,97.6822,236.6826,103.3709,256.7716,0,U,60534,999,9898,.1577741E-3,.1728E-4,0
NIGHTJAR,2024-149BV,2026-06-10T10:48:14.107392,14.98989128,.0002061,97.6862,238.2511,83.8943,276.2514,0,U,60535,999,14186,.16656315E-3,.1959E-4,0
LEMUR-2-MARHISYAM,2024-149BW,2026-06-10T05:48:24.414336,15.11118694,.00031016,97.6879,244.1092,130.9350,229.2148,0,U,60536,999,9943,.64712786E-3,.10787E-3,0
SATELIOT_4,2024-149BX,2026-06-10T13:14:57.046560,14.96643675,.00034408,97.6738,236.1610,76.3383,283.8222,0,U,60537,999,9898,.19021648E-3,.2112E-4,0
PICO-02A021,2024-149BY,2026-06-09T10:40:30.877248,15.03169138,.00054248,97.6731,239.3437,49.7626,310.4073,0,U,60538,999,9857,.36415045E-3,.4863E-4,0
